0 THORAD AGENA D DEB
1 05794U 69082JW  13280.99640557  .00001397  00000-0  41290-3 0  5310
2 05794 070.0046 271.7309 0039197 306.2903 085.7214 14.45092879738739
0 THORAD AGENA D DEB
1 05794U 69082JW  13283.35705012  .00001550  00000-0  45601-3 0  5323
2 05794 070.0046 266.2613 0039253 303.3178 126.2538 14.45105607739073
0 THORAD AGENA D DEB
1 05794U 69082JW  13285.38001235  .00001433  00000-0  42271-3 0  5335
2 05794 070.0048 261.5741 0039287 300.6844 210.2542 14.45111692739364
0 THORAD AGENA D DEB
1 05794U 69082JW  13287.58908800  .00002080  00000-0  60572-3 0  5347
2 05794 070.0052 256.4555 0039287 297.8289 182.5059 14.45120267739682
0 THORAD AGENA D DEB
1 05794U 69082JW  13290.27832588  .00002056  00000-0  59869-3 0  5357
2 05794 070.0056 250.2246 0039263 294.3399 132.8177 14.45132666740073
0 THORAD AGENA D DEB
1 05794U 69082JW  13292.30184726  .00002381  00000-0  69036-3 0  5366
2 05794 070.0064 245.5383 0039282 291.4940 220.1521 14.45138474740361
0 THORAD AGENA D DEB
1 05794U 69082JW  13294.30927417  .00002740  00000-0  79180-3 0  5371
2 05794 070.0063 240.8875 0039264 288.8915 223.5899 14.45146680740651
